{"type":"FeatureCollection","crs":{"type":"name","properties":{"name":"EPSG:4326"}},"features":[{"type":"Feature","id":106,"geometry":{"type":"Polygon","coordinates":[[[-77.1915876619911,38.8997742468037],[-77.1914376954822,38.8996709960798],[-77.1913373354803,38.8996018984298],[-77.1913350302493,38.8995989582793],[-77.190619407872,38.8986864322671],[-77.1914426800753,38.8977915765246],[-77.1914608701681,38.8977718048858],[-77.19052025198,38.8971438092647],[-77.1894463581877,38.8964593737393],[-77.188945031682,38.8961398497326],[-77.1889347835918,38.8961334946857],[-77.1888570093649,38.8962803872872],[-77.1888114880986,38.896271641178],[-77.1886223755641,38.8962365781114],[-77.1884402656936,38.8962029659257],[-77.1882336388258,38.8961649606729],[-77.1879324808001,38.8961080502019],[-77.187921966286,38.8961065597573],[-77.1878134084013,38.8960861251325],[-77.1877888912891,38.896081732255],[-77.187648789975,38.8960568261029],[-77.1876347873829,38.8960539236622],[-77.1872180463462,38.8959764979605],[-77.1872005305869,38.8959735562055],[-77.1871410071632,38.8959619069543],[-77.186843313797,38.8959077783941],[-77.1865946559519,38.8958624353609],[-77.186367001026,38.8958214447783],[-77.1862619320677,38.8958024207267],[-77.1860587955538,38.8957658236562],[-77.1856350315207,38.8956883137386],[-77.1854564376254,38.8956547362325],[-77.1851692360272,38.8956034668116],[-77.1849276066524,38.8955581988935],[-77.1848225384613,38.8955391735532],[-77.1847699918028,38.895530347208],[-77.1844828163664,38.895477703387],[-77.1843987771027,38.8954616591716],[-77.183824403713,38.8953577417432],[-77.1835862640065,38.8953138822467],[-77.1832185143276,38.8952479752882],[-77.1830398974588,38.8952157668246],[-77.1828577916427,38.8951821459634],[-77.1827247201132,38.8951573127186],[-77.1827142058467,38.8951558218076],[-77.1823254797106,38.8950841847859],[-77.1821923833303,38.8950607236575],[-77.1820768275759,38.8950388321804],[-77.1819787619819,38.8950212558463],[-77.1818106593047,38.8949905364758],[-77.181642557924,38.8949598168774],[-77.1813728782458,38.8949114807635],[-77.1812713250887,38.8948924916812],[-77.1810647046576,38.8948544728926],[-77.1807109881125,38.8947900885946],[-77.1803642720686,38.8947271548722],[-77.1800525869247,38.8946701057768],[-77.1797864225368,38.894621805494],[-77.1795622897022,38.89458084211],[-77.1794957412673,38.8945691099848],[-77.1791910596277,38.8945135103204],[-77.179085994488,38.8944944798443],[-77.1789424102998,38.8944681510608],[-77.1787427944185,38.8944315808371],[-77.1783085321314,38.894352552296],[-77.1782875293095,38.8943481969626],[-77.1780739122312,38.8943087220435],[-77.1776571410459,38.8942340078291],[-77.1774365237465,38.8941930799334],[-77.177082812566,38.894128684687],[-77.1770372687855,38.8941213067298],[-77.1764349386368,38.8940101730016],[-77.1762493270328,38.8939765023137],[-77.1758535875742,38.8939047637728],[-77.1757170077476,38.8938798829795],[-77.1756119444574,38.8938608493932],[-77.1754193316421,38.8938257254414],[-77.1751496857717,38.8937760023083],[-77.1750364542353,38.8937555742432],[-77.1747924656176,38.8937115605353],[-77.1747014297863,38.8936940573882],[-77.1743126942059,38.8936237665441],[-77.1739765044157,38.8935623056266],[-77.1736438017408,38.89350225612],[-77.1734196759117,38.8934612810044],[-77.173192036135,38.8934202648652],[-77.1729854253621,38.8933822327659],[-77.1728803889201,38.8933618240157],[-77.1725967185526,38.8933105635192],[-77.1723655932053,38.8932681342724],[-77.1723038052244,38.8932577482746],[-77.1722891388658,38.8932464218728],[-77.1721428164732,38.8931334228741],[-77.171959268044,38.8929885272841],[-77.1717791815299,38.8928464724085],[-77.1715922806676,38.8927018455242],[-77.1714154466706,38.8925650107563],[-77.1711834649426,38.8923811489267],[-77.1710275661931,38.892261306642],[-77.1707817021669,38.8920663037652],[-77.1704976556664,38.8918461531616],[-77.1701582662364,38.8915787489117],[-77.1699642886855,38.8914282399541],[-77.1697564123091,38.8912693631439],[-77.1695625214274,38.8911161354875],[-77.1693408139507,38.8909433711755],[-77.1692369534302,38.8908598140999],[-77.1690083581302,38.8906814781648],[-77.1687762164516,38.8905031024717],[-77.1685823308698,38.8903498740812],[-77.168100915554,38.8899737031797],[-77.1680178639721,38.8899068570253],[-77.1677061035953,38.8896644169487],[-77.1676368147378,38.8896114566977],[-77.1672522903534,38.8893160156445],[-77.16700293498,38.8891209648659],[-77.1668748469845,38.8890179085288],[-77.1666601106875,38.8888507091733],[-77.1665181254143,38.8887392566174],[-77.1663587805775,38.8886166227063],[-77.1659605218333,38.8883045451774],[-77.165801178915,38.8881819104965],[-77.1656765544079,38.8880816651776],[-77.1655553085148,38.887986895185],[-77.1653197569999,38.8878057275836],[-77.1652574819206,38.8877555915824],[-77.1645440666488,38.8871982775554],[-77.1639830253922,38.8867607711794],[-77.1639069057291,38.8866994928673],[-77.1636470969378,38.8864988227729],[-77.1634600331721,38.8863539282294],[-77.1631034766542,38.8860697482685],[-77.1626046577178,38.8856878636368],[-77.1621303148651,38.8853144945638],[-77.1599105377742,38.8835839043659],[-77.1598897186986,38.8835699366978],[-77.1595711771386,38.8833191315392],[-77.1594984386393,38.8832634078971],[-77.1593252367064,38.8831296487688],[-77.1591313906012,38.8829763765573],[-77.1582864440252,38.8823186641009],[-77.1581271275157,38.8821960188243],[-77.1579574783127,38.8820622702479],[-77.1577877156793,38.8819328319547],[-77.1577600390637,38.8819117285602],[-77.1576319258485,38.881811407395],[-77.1574691493176,38.8816859756111],[-77.1573029134236,38.8815577571145],[-77.1571298073134,38.8814212226391],[-77.1568562268708,38.881209396148],[-77.1568078233697,38.8811676512714],[-77.1567005305389,38.8810812972947],[-77.1565897255165,38.8809949030395],[-77.1563923434848,38.8808416135737],[-77.1560738257548,38.8805908257799],[-77.1559145168634,38.8804681774486],[-77.1559040824508,38.8804625659747],[-77.1557482848931,38.8803399846219],[-77.155588977115,38.8802173358414],[-77.1554262089237,38.880091901189],[-77.155412365095,38.8800807585801],[-77.1552185010134,38.8799274793973],[-77.1550800104408,38.8798188254319],[-77.1548895567019,38.8796711047199],[-77.1547267909891,38.8795456681804],[-77.1546990522893,38.8795261282317],[-77.154480860907,38.8793588389542],[-77.1543077649474,38.8792223281668],[-77.1541347216831,38.8790830428574],[-77.1540792953244,38.8790412172173],[-77.1537295958323,38.8787680980678],[-77.1535080507361,38.8785925573923],[-77.1533349074733,38.878458762661],[-77.1531999196042,38.8783528655409],[-77.1528536003247,38.8780852735835],[-77.1527323707545,38.8779932638749],[-77.1522372270053,38.8776086292945],[-77.1520848526967,38.8774915471723],[-77.1519152265056,38.8773578176464],[-77.1517247846611,38.8772100916981],[-77.1515343968719,38.877059592087],[-77.1513993797223,38.8769536924634],[-77.1511604916664,38.8767669368306],[-77.1511223726158,38.8767390657051],[-77.1509354990457,38.8765886333702],[-77.1506654675498,38.876376831649],[-77.1506031252772,38.8763294327632],[-77.1503572692192,38.8761398772487],[-77.1502984400878,38.8760924906405],[-77.1501114661079,38.8759475757714],[-77.1499210674572,38.8757998463559],[-77.1497058127735,38.8756289021587],[-77.1496997000451,38.8756240452333],[-77.1497000740961,38.8756109049723],[-77.1497071510431,38.8754215091479],[-77.1497106641093,38.8752348192699],[-77.1497198324381,38.8751209633988],[-77.1497863351936,38.8740137015684],[-77.1498093979401,38.8735347828297],[-77.1498137881975,38.8734881507196],[-77.1498143822574,38.8734565781516],[-77.1498154412323,38.8734002966165],[-77.1513172455231,38.8734903244111],[-77.1522510675855,38.8733349097374],[-77.152788666497,38.8731406181389],[-77.1536835051018,38.8728158638525],[-77.1539558382547,38.8727173826002],[-77.1546689655918,38.8727159436716],[-77.1552486083535,38.8727143448834],[-77.155551658605,38.8724761631437],[-77.1555830611534,38.8724875068025],[-77.1557435603482,38.8725456387972],[-77.1557714520731,38.8725569422147],[-77.1558028289777,38.8725696585366],[-77.1558306424291,38.8725850800926],[-77.1558584558925,38.8726005016421],[-77.155882731616,38.872617255707],[-77.1559070073509,38.8726340097669],[-77.1559312573857,38.8726521365437],[-77.1559554817219,38.8726716360373],[-77.1559761683174,38.8726924680509],[-77.155996854925,38.8727133000607],[-77.1560175158348,38.8727355047887],[-77.1560346390015,38.8727590420397],[-77.1560517878885,38.8727812065662],[-77.1560724488349,38.8728034112842],[-77.1560930840857,38.8728269887203],[-77.156113745058,38.8728491934308],[-77.1561344060431,38.8728713981375],[-77.156155067041,38.8728936028405],[-77.1561757280517,38.8729158075396],[-77.1561963890752,38.8729380122351],[-77.1562170501115,38.8729602169268],[-77.1562377368493,38.8729810497935],[-77.1562583979107,38.8730032544776],[-77.1562790589849,38.8730254591581],[-77.1563032578372,38.8730463313001],[-77.156323945794,38.8730671632636],[-77.1563446069069,38.8730893679322],[-77.1563688057998,38.8731102400603],[-77.1563894926417,38.8731310719988],[-77.1564136915617,38.8731519441176],[-77.1564343784288,38.8731727760479],[-77.1564585773759,38.8731936481571],[-77.1564827763371,38.8732145202613],[-77.1565034632422,38.8732353521791],[-77.1565276622305,38.8732562242738],[-77.1565518869326,38.8732757236415],[-77.1565760859486,38.873296595726],[-77.1566003106775,38.8733160950835],[-77.1566245097212,38.8733369671578],[-77.1566487344769,38.8733564665052],[-77.1566729592458,38.8733759658474],[-77.1566971840278,38.8733954651846],[-77.156721408823,38.8734149645166],[-77.1567456336144,38.8734344647443],[-77.1567698584359,38.8734539640661],[-77.1567940832706,38.8734734633829],[-77.156821845896,38.8734916301445],[-77.1568460707576,38.8735111294504],[-77.156870321326,38.8735292560292],[-77.1568980594513,38.8735487955076],[-77.1569223100456,38.8735669220756],[-77.1569500727396,38.8735850888065],[-77.1569743233593,38.8736032153636],[-77.1570020860805,38.8736213820819],[-77.1570263367256,38.8736395086281],[-77.1570541251643,38.8736563026122],[-77.1570783758343,38.8736744291474],[-77.1571061386095,38.8736925958409],[-77.1571339270874,38.8737093898058],[-77.1571582034838,38.8737261436025],[-77.1571859662992,38.8737443102769],[-77.1572137548158,38.8737611042227],[-77.1572415433454,38.8737778981619],[-77.1572693318881,38.8737946920944],[-77.1572971204438,38.8738114860203],[-77.1573249346976,38.8738269072177],[-77.1573527232788,38.8738437011303],[-77.1573805118729,38.8738604950363],[-77.1574083261637,38.8738759162137],[-77.1574361404495,38.8738913382852],[-77.1574639302339,38.8739081321844],[-77.157491744561,38.8739235533419],[-77.1575195589001,38.8739389744928],[-77.157550885357,38.873954435787],[-77.1582734221553,38.8743897021427],[-77.1584061170162,38.8742443046693],[-77.1583818401532,38.8742275511328],[-77.1583540768481,38.8742093847433],[-77.158326287891,38.8741925910692],[-77.1583020367307,38.874174464794],[-77.1582742734664,38.8741562983854],[-77.1582465102162,38.8741381319702],[-77.1582222590944,38.8741200056783],[-77.1581944958713,38.8741018392506],[-77.158170244775,38.8740837129477],[-77.1581424815792,38.8740655465076],[-77.1581182305082,38.8740474201939],[-77.1580939794495,38.874029293875],[-77.158066241965,38.8740097546946],[-77.1580419909322,38.8739916283648],[-77.1580177644313,38.8739721292948],[-77.1579935390958,38.8739526302329],[-77.1579657759954,38.8739344637504],[-77.1579415506867,38.8739149646776],[-77.1579173253912,38.8738954655996],[-77.1578931001257,38.8738759656159],[-77.1578688748566,38.8738564665278],[-77.1578446496006,38.8738369674346],[-77.1578204500334,38.8738160956143],[-77.1577962248042,38.8737965965109],[-77.1577755116855,38.8737771375457],[-77.1577513121586,38.8737562657108],[-77.1577270869683,38.8737367665929],[-77.1577028874692,38.8737158947478],[-77.1576822000773,38.8736950630437],[-77.1576580006053,38.8736741911893],[-77.1576337754681,38.8736546920517],[-77.157613088114,38.8736338603351],[-77.1575888886827,38.873612988466],[-77.1575682013536,38.8735921567413],[-77.1575475397174,38.8735699522909],[-77.1575233403266,38.873549080408],[-77.1575129838386,38.8735393509012],[-77.157502653035,38.8735282486714],[-77.1574958600009,38.8735158138703],[-77.1574855292033,38.873504711639],[-77.1574822482577,38.8734923169889],[-77.1574754809126,38.8734785094644],[-77.1574721999698,38.8734661148139],[-77.1574689447105,38.8734523474412],[-77.157469201533,38.8734386202208],[-77.1574694583723,38.8734248920996],[-77.1574732015917,38.8734125777535],[-77.1574769704919,38.8733988906852],[-77.1574807137087,38.8733865763387],[-77.1574879946836,38.8733729294219],[-77.1575133753484,38.8733306560975],[-77.1580456460598,38.8734204939097],[-77.1581753408738,38.8732476029829],[-77.1581789812884,38.8732407795028],[-77.1582509937544,38.8731468642662],[-77.1582617866245,38.8731332574295],[-77.1593887236572,38.8735456766821],[-77.159406181511,38.8735513680453],[-77.1599818832439,38.873761145143],[-77.1603272744545,38.8738886573009],[-77.160456377816,38.8739354404613],[-77.1604738358493,38.8739411316652],[-77.1605575627023,38.8739722930308],[-77.1607843638578,38.8740545146179],[-77.1609134678324,38.8741012963731],[-77.1610460317124,38.8741508634633],[-77.1613077247265,38.8742458389876],[-77.1616043104252,38.8743535687355],[-77.1617787647928,38.8744173434591],[-77.1619881104633,38.8744938717032],[-77.1623474817144,38.8746256561452],[-77.1624550745676,38.8746648404718],[-77.1626510436703,38.8747362086974],[-77.1629336603848,38.8748396569033],[-77.1632337375469,38.8749487961325],[-77.1633977350516,38.8750083294323],[-77.1636490511961,38.8750949434567],[-77.1637258586932,38.8751205317281],[-77.1638689640576,38.8751702155275],[-77.1638864226619,38.8751759062224],[-77.1641166669414,38.8752622794781],[-77.1643294530756,38.875342962555],[-77.1644934279938,38.8754038670549],[-77.1647759989071,38.8755100562557],[-77.1650341652372,38.875606356246],[-77.1652399801187,38.8756842114673],[-77.1655888777368,38.8758131216458],[-77.165738881403,38.8758697465786],[-77.1661295956375,38.8760169784954],[-77.1663669207735,38.8761006816617],[-77.1664925697192,38.8761446719141],[-77.166649574878,38.87620274818],[-77.1671171526722,38.8763728185415],[-77.1674381630794,38.8764904216046],[-77.1675393806442,38.8765258954118],[-77.1675917073487,38.8765457112923],[-77.1678324728781,38.876633569518],[-77.168087210376,38.8767257056455],[-77.1686664497386,38.8769368525606],[-77.1687641562804,38.8769722854909],[-77.1688339176224,38.8769991635034],[-77.1689141903397,38.8770275336283],[-77.1690188718834,38.8770657914254],[-77.1691200655804,38.8771026365885],[-77.1692003385267,38.8771310065171],[-77.1693085060342,38.8771706765667],[-77.169343374152,38.8771848026783],[-77.1708264048462,38.8777247156295],[-77.1709485216432,38.8777700340672],[-77.1710253091817,38.8777969902709],[-77.1713603053399,38.8779188597286],[-77.1714893965929,38.8779670025222],[-77.1715836190333,38.8780010206411],[-77.1716604070576,38.878027976428],[-77.1716708677604,38.8780322137819],[-77.1718383673706,38.8780931477129],[-77.172089602872,38.8781852354027],[-77.172197798968,38.8782235300572],[-77.172239667429,38.8782391065514],[-77.1725432345135,38.878351006157],[-77.1726130240056,38.8783765091918],[-77.1728956694168,38.8784799333295],[-77.1731504211221,38.878572058445],[-77.1732690792496,38.8786145893294],[-77.1733842251727,38.8786570804172],[-77.1736913081609,38.8787690167198],[-77.1741119289689,38.8788204486474],[-77.1749391218062,38.8789231494497],[-77.1756611741116,38.8790123017059],[-77.176151893106,38.8790727557138],[-77.1762745726999,38.8790878686669],[-77.1763867163927,38.8791028627455],[-77.176572492139,38.8791255515494],[-77.1769545569411,38.8791724197218],[-77.1775083732357,38.8792404430028],[-77.1775609335244,38.8792478999212],[-77.1777361981822,38.8792690955044],[-77.1785108420465,38.8793643143122],[-77.1789244450275,38.8794156499503],[-77.1790611500638,38.8794322907578],[-77.1795223592021,38.879187589824],[-77.1807989436055,38.8791154371281],[-77.1840097503179,38.8789331511738],[-77.1853390865557,38.8788574213139],[-77.1858384464434,38.8788300581109],[-77.18676335531,38.8787772460099],[-77.1869567610936,38.8787670515052],[-77.1872029526441,38.8787519547337],[-77.1878430563802,38.878712425279],[-77.1882545050622,38.8786895615779],[-77.1889869060058,38.8784052894206],[-77.1893548735982,38.878262483963],[-77.1896237914604,38.8781570173039],[-77.1897405517471,38.8781116378211],[-77.1897677229205,38.8781627422295],[-77.1898868447483,38.8783727691527],[-77.1901386387714,38.8788204329496],[-77.19032926876,38.8791548266049],[-77.1904178095948,38.8793082185952],[-77.1906491620081,38.8797213280142],[-77.1907410413198,38.8798843670872],[-77.1909009666714,38.8801689900379],[-77.1909486881082,38.8802491563251],[-77.1910881903643,38.8804978522753],[-77.1912071947365,38.8807147413699],[-77.1912753156043,38.8808322059949],[-77.1915985872641,38.8814069791921],[-77.1917043206234,38.8815811566816],[-77.1918063918359,38.8817635304017],[-77.1918983275976,38.8819238230453],[-77.1919085648088,38.8819404140321],[-77.1920344489779,38.8821656159123],[-77.1922318704019,38.8825138125865],[-77.1922794948068,38.8825994691912],[-77.1922930946522,38.8826243347106],[-77.1923169569514,38.8826644175492],[-77.1925348573268,38.8830457937722],[-77.1925756323963,38.883121762954],[-77.1926097075717,38.8831798084763],[-77.1928241223297,38.8835597722727],[-77.1930318153503,38.8839231847636],[-77.1931202928509,38.8840806918096],[-77.1932495721858,38.8843127958824],[-77.1933381756448,38.884463439119],[-77.1936070021526,38.8849428628958],[-77.1937363595932,38.8851708482049],[-77.1938488041952,38.8853629462674],[-77.1938556546313,38.8853726334761],[-77.1942265964099,38.8860330555534],[-77.1942674249337,38.8861062786393],[-77.1941982347949,38.8862400637426],[-77.194030926065,38.8865526221729],[-77.1939508719498,38.886704135368],[-77.1939254080662,38.886751907323],[-77.1937253584922,38.8871258863614],[-77.1936962565655,38.8871804828192],[-77.1936744050969,38.8872228028823],[-77.1936308520546,38.8872992066449],[-77.193594449449,38.8873688258094],[-77.1934489622283,38.8876404351019],[-77.1934016208942,38.8877318996686],[-77.1933724684745,38.8877892414875],[-77.1932014658422,38.8881113686207],[-77.1931214832362,38.8882587639174],[-77.1930268238037,38.8884403200124],[-77.1928849201233,38.8887078503486],[-77.1928412903058,38.8887883719627],[-77.1928339894804,38.8888033937418],[-77.1927976854023,38.8888675208346],[-77.1927248269184,38.8890095022262],[-77.1926810966813,38.8890955146716],[-77.1925538434868,38.8893302555925],[-77.1924519052439,38.8895254602091],[-77.1922299609316,38.8899431289506],[-77.1921972937664,38.8900004313328],[-77.1921608883993,38.8900700500052],[-77.1920844394354,38.8902161100126],[-77.1919788856141,38.8904167659522],[-77.1919243645123,38.8905163888606],[-77.1918843455762,38.8905914583098],[-77.1918662302139,38.8906214626111],[-77.1917315952977,38.8908753415301],[-77.1916478170973,38.8910377965362],[-77.191564189904,38.8911920142483],[-77.1914841754785,38.8913407801371],[-77.1913749300417,38.8915510063039],[-77.1913495128037,38.8915960321955],[-77.1912222007477,38.8918335160695],[-77.1911639641606,38.8919440812296],[-77.1910511275762,38.8921583851733],[-77.1909965287365,38.8922621248744],[-77.1909287712679,38.8923840173854],[-77.1909415438714,38.892386568791],[-77.1917420688834,38.8925452591633],[-77.1921502349354,38.8928068909174],[-77.1914357038613,38.8935747419034],[-77.1907319543342,38.893174109745],[-77.1909752150585,38.8928933114118],[-77.1907020788325,38.892836763386],[-77.1906895268874,38.8928340558533],[-77.190687349428,38.8928380875227],[-77.1905927529602,38.893015523277],[-77.1904871896791,38.8932161786208],[-77.1903817272151,38.8934113420825],[-77.1903235131292,38.8935205331584],[-77.1902761639305,38.8936119963284],[-77.1902179495046,38.8937211882472],[-77.1900796645065,38.893981889509],[-77.189948630335,38.8942303153567],[-77.1898831869732,38.8943504095913],[-77.1898174338595,38.8944748274497],[-77.1898275162727,38.8944809030929],[-77.1901041433359,38.8946589134148],[-77.1904177350521,38.8948358018083],[-77.1936512791351,38.8969163706447],[-77.1935682926171,38.896995136679],[-77.1935540952386,38.8970102502506],[-77.193542129875,38.8970265003777],[-77.193532545435,38.8970436869112],[-77.193525459903,38.8970615985472],[-77.1935209603066,38.8970800146282],[-77.1935191015474,38.8970987060307],[-77.1935199062527,38.8971174432723],[-77.1935233670981,38.8971359956365],[-77.1935294375358,38.897154133772],[-77.1935380467141,38.8971716334625],[-77.1935490855797,38.8971882790761],[-77.1935624183711,38.8972038654948],[-77.1935778814497,38.8972181990021],[-77.1935952843045,38.8972311054033],[-77.193614409667,38.8972424237194],[-77.1944133968725,38.8976627712283],[-77.1944536304788,38.8976848692494],[-77.1944926919641,38.8977082155155],[-77.1945305186219,38.8977327714921],[-77.1945670512359,38.8977584968819],[-77.1946472255375,38.8978375550765],[-77.1948559527742,38.8983115237901],[-77.194866367108,38.8983598602275],[-77.1948746647912,38.8984084470261],[-77.1948808353416,38.898457226411],[-77.1948848717351,38.898506140646],[-77.1948867703237,38.8985551365366],[-77.1948865253177,38.8986041518552],[-77.1948841422738,38.8986531344104],[-77.1948805289053,38.8986910373221],[-77.1948750503373,38.8987288023917],[-77.1948677121446,38.8987663765265],[-77.1948585280525,38.89880370222],[-77.1943616189843,38.8992728875335],[-77.1943118535668,38.8992951807866],[-77.1942608017149,38.8993156236493],[-77.1942085784161,38.8993341696495],[-77.1940171882721,38.8993970306749],[-77.1938249661681,38.8994583289583],[-77.1936319398774,38.8995180593991],[-77.1934381268485,38.899576214079],[-77.1932435468028,38.899632786907],[-77.1930482252252,38.8996877718564],[-77.1925143438535,38.8997955664432],[-77.1919686236657,38.8998477915131],[-77.1915876619911,38.8997742468037]]]},"properties":{"OBJECTID":106,"STCOFIPS":"51610","GNIS":"1498423","NAME":"Falls Church","NAMELSAD":"Falls Church City","GSOURCE":"L","LADOPT":"Y","AREASQMI":2.042550972460938,"LASTUPDATE":1417410000000,"JURISTYPE":"CI","Shape__Area":56958277.8359375,"Shape__Length":40537.298063395385}}]}