{"type":"FeatureCollection","crs":{"type":"name","properties":{"name":"EPSG:4326"}},"features":[{"type":"Feature","id":1,"geometry":{"type":"Polygon","coordinates":[[[-77.1497024025099,38.8756186816137],[-77.149709480336,38.8754292861154],[-77.1497129936471,38.8752425952037],[-77.1497221609546,38.8751287400052],[-77.1497886641334,38.8740214773056],[-77.14981172748,38.8735425586182],[-77.1498161166485,38.8734959268342],[-77.1498167104349,38.8734643538323],[-77.1498177695486,38.8734080727973],[-77.1513195748372,38.8734980997723],[-77.1522533969313,38.873342686619],[-77.152790996408,38.8731483950466],[-77.1536858343136,38.8728236402137],[-77.1539581684735,38.8727251590251],[-77.1546712951635,38.8727237197089],[-77.1552509375921,38.8727221209349],[-77.1555539887448,38.8724839388785],[-77.1555853920505,38.8724952827976],[-77.1557458913474,38.8725534151092],[-77.1557737831386,38.8725647170545],[-77.1558051594949,38.872577433839],[-77.1558329722344,38.872592855114],[-77.1558607867705,38.8726082777844],[-77.1558850610461,38.8726250320655],[-77.1559093371184,38.8726417856434],[-77.1559335871395,38.8726599127933],[-77.1559578120077,38.8726794114162],[-77.1559784984121,38.8727002437446],[-77.1559991848165,38.8727210760669],[-77.156019846068,38.8727432805588],[-77.1560369697539,38.8727668187533],[-77.1560541185927,38.8727889826671],[-77.1560747789459,38.8728111878371],[-77.1560954141463,38.8728347651742],[-77.1561160753979,38.8728569689312],[-77.1561367357511,38.8728791747794],[-77.1561573987993,38.8729013785225],[-77.1561780591525,38.8729235843568],[-77.156198720404,38.8729457880861],[-77.1562193807572,38.8729679939065],[-77.1562400680599,38.8729888247516],[-77.1562607284131,38.8730110305585],[-77.1562813896647,38.8730332342605],[-77.1563055893801,38.8730541070488],[-77.1563262757845,38.8730749392674],[-77.1563469361377,38.8730971436487],[-77.1563711358531,38.8731180164183],[-77.1563918222575,38.8731388472193],[-77.1564160219729,38.8731597199766],[-77.1564367083773,38.8731805528636],[-77.1564609080927,38.8732014242099],[-77.1564851078082,38.8732222962495],[-77.1565057942125,38.8732431277193],[-77.156529993928,38.873264000446],[-77.1565542169996,38.8732834996026],[-77.156578416715,38.8733043723174],[-77.1566026415833,38.8733238707635],[-77.1566268412987,38.8733447434664],[-77.1566510643704,38.8733642433002],[-77.1566752892386,38.8733837431286],[-77.1566995150052,38.8734032408536],[-77.1567237398735,38.8734227406713],[-77.1567479647418,38.8734422404837],[-77.1567721887117,38.8734617402907],[-77.15679641358,38.873481239393],[-77.1568241778104,38.8734994068922],[-77.1568484026787,38.8735189045855],[-77.1568726518015,38.8735370315117],[-77.1569003899809,38.8735565711567],[-77.1569246409003,38.8735746980733],[-77.1569524033341,38.8735928648493],[-77.1569766542535,38.8736109917567],[-77.1570044157891,38.8736291585234],[-77.1570286667085,38.8736472847221],[-77.1570564560918,38.8736640786223],[-77.1570807061129,38.8736822055115],[-77.1571084694451,38.87370037226],[-77.1571362570318,38.8737171661476],[-77.1571605340023,38.873733919468],[-77.1571882982328,38.8737520869027],[-77.1572160858195,38.8737688800786],[-77.1572438752028,38.8737856739501],[-77.1572716627895,38.8738024678175],[-77.1572994521728,38.873819261681],[-77.1573272658106,38.8738346840853],[-77.1573550551939,38.8738514779411],[-77.1573828427806,38.873868271793],[-77.1574106564184,38.8738836927879],[-77.1574384718529,38.8738991130801],[-77.1574662594396,38.8739159083195],[-77.1574940748741,38.873931329304],[-77.1575218885119,38.8739467502852],[-77.1575532163591,38.8739622111268],[-77.1582757529017,38.8743974778619],[-77.1584084475439,38.8742520808281],[-77.1583841723699,38.8742353276299],[-77.1583564081395,38.8742171610181],[-77.1583286196544,38.8742003672486],[-77.1583043678367,38.874182241191],[-77.1582766036062,38.8741640745656],[-77.1582488411724,38.8741459079356],[-77.158224590253,38.874127781864],[-77.1581968278191,38.8741096152248],[-77.1581725760014,38.8740914884446],[-77.1581448117709,38.874073321796],[-77.1581205617498,38.8740551957059],[-77.1580963108304,38.8740370689119],[-77.1580685717527,38.8740175307977],[-77.1580443208333,38.8739994046934],[-77.1580200968634,38.8739799050338],[-77.1579958710968,38.8739604060684],[-77.1579681068663,38.8739422393864],[-77.1579438828964,38.8739227397111],[-77.1579196571298,38.8739032421287],[-77.1578954313632,38.8738837424428],[-77.1578712055966,38.8738642427516],[-77.15784697983,38.8738447437544],[-77.1578227819112,38.873823872597],[-77.1577985561446,38.8738043728893],[-77.1577778436891,38.8737849137395],[-77.1577536430754,38.8737640418652],[-77.1577294173088,38.8737445435398],[-77.1577052175934,38.8737236709543],[-77.1576845302907,38.8737028389259],[-77.1576603305752,38.8736819677268],[-77.1576361066053,38.8736624679802],[-77.1576154193026,38.8736416359338],[-77.1575912195872,38.8736207647168],[-77.1575705322845,38.8735999326582],[-77.157549871033,38.8735777277346],[-77.1575256713175,38.8735568564988],[-77.1575153146406,38.8735471268907],[-77.1575049840148,38.8735360244215],[-77.1574981900563,38.8735235903533],[-77.1574878594306,38.8735124878804],[-77.1574845778848,38.8735000922734],[-77.1574778108758,38.8734862853382],[-77.1574745293301,38.873473890426],[-77.1574712756321,38.8734601233497],[-77.1574715325503,38.8734463954355],[-77.1574717894685,38.8734326682179],[-77.1574755309516,38.8734203537238],[-77.1574793002826,38.8734066670647],[-77.1574830444607,38.8733943518667],[-77.1574903244077,38.873380705766],[-77.1575157054078,38.8733384323506],[-77.1580479760782,38.8734282698849],[-77.158177672144,38.8732553786014],[-77.1581813112192,38.8732485555381],[-77.158253324664,38.8731546404384],[-77.1582641170238,38.8731410327571],[-77.1602476771212,38.8739454424743],[-77.1604808393448,38.8740279086513],[-77.1610108651253,38.8742150202726],[-77.1644957606924,38.8754116429225],[-77.1647783329516,38.8755178321072],[-77.1650364988828,38.8756141316574],[-77.1652423136942,38.8756919879011],[-77.1655912103674,38.875820897014],[-77.1657412155451,38.8758775223141],[-77.1661319296931,38.8760247552966],[-77.1663692547097,38.8761084575971],[-77.1664949038651,38.876152449048],[-77.1666519087155,38.8762105245191],[-77.1671194863124,38.8763805944689],[-77.1674404965843,38.876498197518],[-77.1675417142589,38.8765336714822],[-77.1675940429208,38.8765534879407],[-77.1678348066884,38.8766413457822],[-77.1680895455467,38.876733481358],[-77.1686687837335,38.8769446282863],[-77.1687664916903,38.8769800628649],[-77.1688362521603,38.8770069403751],[-77.1689165256141,38.877035309554],[-77.1690212071925,38.8770735679957],[-77.1691224006126,38.8771104130647],[-77.1692026731681,38.877138783601],[-77.1693108420064,38.8771784525403],[-77.1693457083175,38.8771925790524],[-77.1708287388167,38.8777324922393],[-77.1709508566948,38.8777778107058],[-77.1710276437869,38.8778047669381],[-77.1713626399294,38.8779266356109],[-77.1714917332257,38.8779747792247],[-77.1715859548209,38.8780087971582],[-77.1716627428113,38.878035753303],[-77.1716732036928,38.8780399912058],[-77.1718407026624,38.8781009246673],[-77.1720919380912,38.8781930121955],[-77.1722001356756,38.8782313056793],[-77.172242003456,38.8782468830749],[-77.1725455693433,38.8783587821731],[-77.1726153594578,38.8783842849971],[-77.1728980062771,38.8784877102255],[-77.1731527577119,38.8785798350157],[-77.1732714161777,38.8786223654598],[-77.1733865613325,38.8786648567166],[-77.1736936450225,38.8787767936191],[-77.1741142649846,38.8788282248414],[-77.1749414588511,38.8789309270312],[-77.1756635121,38.8790200784621],[-77.176154231197,38.8790805320534],[-77.1762769096238,38.8790956442194],[-77.176389052609,38.8791106388975],[-77.1765748295996,38.8791333274157],[-77.1769568929714,38.8791801967637],[-77.1775107124289,38.8792482188728],[-77.1775632710595,38.8792556770347],[-77.1777385350664,38.8792768710775],[-77.1785131792854,38.8793720913928],[-77.1789267825068,38.8794234263787],[-77.1790634881267,38.8794400671636],[-77.1795246975666,38.8791953655529],[-77.1808012826371,38.8791232132495],[-77.1840120896346,38.8789409272365],[-77.1853414273719,38.8788651969755],[-77.1858407864652,38.8788378334442],[-77.1867656945767,38.8787850210787],[-77.1869591018574,38.8787748271408],[-77.1872052941442,38.8787597302915],[-77.1878453967847,38.878720201399],[-77.1882568467444,38.8786973372202],[-77.1889892467888,38.8784130648265],[-77.1893572137972,38.8782702607007],[-77.1896261343589,38.8781647931337],[-77.1897428919897,38.8781194140729],[-77.1897700642304,38.878170518488],[-77.189889186227,38.8783805450311],[-77.1901409804078,38.8788282087572],[-77.1903316100977,38.8791626034539],[-77.1904201498487,38.8793159940598],[-77.1906515037636,38.8797291040253],[-77.1907433843492,38.8798921424283],[-77.1909033087243,38.8801767662489],[-77.1909510290288,38.8802569328831],[-77.1910905320025,38.8805056280349],[-77.1912095363198,38.8807225175751],[-77.1912776582627,38.880839981971],[-77.1916009286958,38.881414756464],[-77.1917066622014,38.881588932771],[-77.1918087341739,38.8817713070941],[-77.1919006686583,38.8819316003113],[-77.1919109058593,38.8819481901603],[-77.1920367912717,38.8821733918727],[-77.1922342140217,38.8825215892961],[-77.1922818373081,38.882607246121],[-77.1922954378015,38.8826321117759],[-77.1923192997504,38.8826721937192],[-77.1925372004956,38.883053570681],[-77.1925779750264,38.8831295398255],[-77.19261205082,38.8831875858193],[-77.1928264652036,38.8835675488888],[-77.1930341583923,38.8839309618008],[-77.1931226343629,38.8840884691715],[-77.1932519145087,38.8843205721104],[-77.1933405180401,38.8844712160744],[-77.1936093442788,38.8849506407957],[-77.1937387016797,38.8851786258106],[-77.1938511473971,38.8853707238051],[-77.1938579970511,38.8853804112379],[-77.1942289392797,38.886040831754],[-77.1942697677094,38.886114055967],[-77.1942005776696,38.8862478401762],[-77.1940332700411,38.8865603990533],[-77.1939532157763,38.8867119130154],[-77.1939277521312,38.8867596842761],[-77.1937277009107,38.8871336637729],[-77.1936985999871,38.8871882606711],[-77.1936767484678,38.8872305803879],[-77.1936331945496,38.8873069841841],[-77.193596791221,38.8873766025513],[-77.1934513054675,38.8876482131018],[-77.193403964252,38.8877396771312],[-77.1933748121244,38.8877970201307],[-77.1932038097252,38.8881191459767],[-77.193123825529,38.8882665409865],[-77.1930291673525,38.8884480968612],[-77.1928872631821,38.8887156282679],[-77.1928436338053,38.8887961488611],[-77.1928363322987,38.8888111708592],[-77.1928000295814,38.888875298198],[-77.1927271699237,38.8890172804078],[-77.1926834399357,38.8891032929931],[-77.1925561863892,38.8893380337597],[-77.1924542473673,38.889533238288],[-77.1922323042034,38.8899509071082],[-77.1921996378664,38.8900082091671],[-77.1921632318428,38.8900778269847],[-77.1920867816189,38.8902238873453],[-77.1919812277764,38.890424543914],[-77.1919267063269,38.8905241668416],[-77.1918866890759,38.8905992358181],[-77.1918685718532,38.8906292412918],[-77.1917339377483,38.8908831196465],[-77.1916501599666,38.8910455751954],[-77.1915665322036,38.8911997931646],[-77.1914865174646,38.8913485591922],[-77.1913772733429,38.8915587838076],[-77.1913518555119,38.8916038102835],[-77.1912245426766,38.8918412954901],[-77.191166305795,38.8919518594064],[-77.1910534711072,38.8921661633782],[-77.1909988724025,38.8922699034542],[-77.1909477789241,38.892362012472],[-77.1909312023121,38.8923918626817],[-77.1909438928122,38.892394406308],[-77.1917443321545,38.8925529814416],[-77.1921526496888,38.8928146242894],[-77.1914380838977,38.8935825851658],[-77.1907342898052,38.8931818912938],[-77.1909774727358,38.8929010762542],[-77.1907044298052,38.8928444861949],[-77.1906919620874,38.8928417719852],[-77.1906896911463,38.8928458663725],[-77.190595095852,38.8930233014832],[-77.1904895330263,38.8932239571355],[-77.1903840699136,38.8934191216194],[-77.19032585549,38.8935283120044],[-77.1902785061896,38.893619774755],[-77.190220291766,38.8937289669291],[-77.1900820069077,38.8939896692603],[-77.1899509714539,38.8942380940072],[-77.1898855300838,38.8943581886825],[-77.1898197895746,38.8944825704164],[-77.1898297788406,38.8944886894822],[-77.1901065407965,38.8946666616388],[-77.19041999983,38.8948434986153],[-77.1936535225261,38.8969240770819],[-77.1935706053305,38.8970029607784],[-77.1935564954923,38.8970180782209],[-77.1935445595771,38.8970342492596],[-77.1935348011782,38.8970514759911],[-77.1935278859471,38.8970694193333],[-77.1935233799977,38.8970877325142],[-77.1935215016204,38.8971064197283],[-77.1935222571036,38.8971253061911],[-77.1935256554303,38.8971437074487],[-77.193531692109,38.8971619681753],[-77.1935403788178,38.897179397625],[-77.1935514972661,38.8971959971969],[-77.1935648291632,38.8972115928068],[-77.1935801607102,38.8972260082734],[-77.1935977146891,38.8972389031186],[-77.1936168344316,38.8972502717503],[-77.1944156451284,38.8976705386046],[-77.19445587528,38.8976926101558],[-77.1944949816393,38.8977160429066],[-77.1945329704944,38.8977404928838],[-77.1945693980774,38.8977662970668],[-77.1946496616498,38.8978452791041],[-77.1948582486621,38.8983192233156],[-77.194868790392,38.8983675663437],[-77.1948769093655,38.8984162267409],[-77.1948832676411,38.8984650395135],[-77.1948872103469,38.8985139962717],[-77.1948891740641,38.8985629313234],[-77.1948889396038,38.8986120131569],[-77.1948865141525,38.8986608999017],[-77.1948829685021,38.8986987887487],[-77.1948774483547,38.8987366580002],[-77.1948699582018,38.8987741601935],[-77.1948609328282,38.8988114743039],[-77.1943639372023,38.899280667175],[-77.1943141166366,38.8993029395707],[-77.1942632279741,38.8993234837487],[-77.194210839125,38.8993419508526],[-77.1940194916813,38.8994048697039],[-77.1938272998212,38.8994660630887],[-77.1936342536633,38.8995258728774],[-77.1934405777864,38.8995839593051],[-77.1932458329142,38.8996404894636],[-77.193050677512,38.8996954689497],[-77.1925167638229,38.8998033157837],[-77.1919709043372,38.8998555916887],[-77.1915900869286,38.8997820139095],[-77.1914399856312,38.8996787399274],[-77.191339774968,38.8996096600488],[-77.1913374132971,38.8996067167891],[-77.1906218180367,38.8986942773238],[-77.1914450593159,38.8977993281412],[-77.1914632070813,38.8977796217786],[-77.1905225937237,38.897151632153],[-77.1894486182757,38.8964672259849],[-77.1889473538555,38.8961475591386],[-77.188937146299,38.8961412661284],[-77.188859351297,38.8962881662771],[-77.1888138300683,38.896279420681],[-77.1886247176331,38.8962443578843],[-77.1884426066671,38.8962107457962],[-77.188235980677,38.8961727402628],[-77.1879348222746,38.8961158298048],[-77.1879243083925,38.8961143392256],[-77.1878157505837,38.8960939038851],[-77.1877912328647,38.8960895118487],[-77.187651131613,38.8960646061588],[-77.1876371286743,38.8960617033026],[-77.1872203867393,38.8959842769817],[-77.1872028722862,38.8959813363683],[-77.1871433481188,38.8959696864762],[-77.1868456554168,38.8959155577652],[-77.1865969963563,38.8958702138128],[-77.186369342602,38.8958292248293],[-77.1862642729514,38.8958102002893],[-77.1860611369163,38.8957736033274],[-77.1856373728506,38.8956960927944],[-77.185458778789,38.8956625161035],[-77.1851715775112,38.8956112459866],[-77.1849299468695,38.8955659780473],[-77.1848248790155,38.8955469527378],[-77.1847723329613,38.8955381259488],[-77.1844851577346,38.8954854826072],[-77.1844011176448,38.8954694384616],[-77.1838267447336,38.8953655205798],[-77.1835886031485,38.8953216626771],[-77.1832208544307,38.8952557555178],[-77.1830422370129,38.8952235461654],[-77.1828601323351,38.8951899259035],[-77.1827270604005,38.8951650919111],[-77.1827165465184,38.8951636020111],[-77.1823278203422,38.8950919637232],[-77.182194724153,38.8950685028395],[-77.1820791675698,38.8950466108551],[-77.1819811020835,38.8950290347581],[-77.1818129994461,38.8949983152064],[-77.181644897707,38.8949675963406],[-77.1813752171705,38.894919260087],[-77.1812736635259,38.8949002709604],[-77.1810670447224,38.8948622528398],[-77.180713326791,38.8947978680223],[-77.1803666112273,38.8947349346017],[-77.1800549263665,38.894677885257],[-77.179788761836,38.8946295844635],[-77.179564627681,38.8945886220312],[-77.1794980804848,38.8945768894097],[-77.1791933988899,38.8945212899993],[-77.1790883328325,38.8945022588166],[-77.1789447497108,38.8944759304742],[-77.1787451332749,38.8944393600921],[-77.1783108714969,38.8943603316178],[-77.1782898679872,38.894355977229],[-77.1780762504093,38.8943165017601],[-77.1776594806265,38.8942417876928],[-77.1774388624775,38.8942008585968],[-77.1770851508344,38.8941364633913],[-77.1770396062495,38.8941290857973],[-77.1764372777667,38.8940179519536],[-77.1762516642694,38.8939842814801],[-77.175855925844,38.8939125427208],[-77.1757193450899,38.8938876628358],[-77.1756142826258,38.8938686286866],[-77.1754216694559,38.8938335052704],[-77.1751520230554,38.893783781793],[-77.1750388613807,38.8937632842551],[-77.1747948025928,38.8937193393651],[-77.1747037682202,38.8937018363525],[-77.1743150330607,38.8936315459891],[-77.1739788421589,38.8935700846882],[-77.1736461394154,38.893510035661],[-77.1734220124469,38.8934690599979],[-77.1731943730657,38.8934280451575],[-77.172987762347,38.8933900129646],[-77.1728827268324,38.893369604108],[-77.1725990559337,38.8933183428233],[-77.1723679301909,38.8932759141663],[-77.1722803579254,38.8932611944564],[-77.1497023881369,38.875632110487],[-77.1497024025099,38.8756186816137]]]},"properties":{"OBJECTID":1,"CTYBND_ID":1,"Shape_Leng":40538.9022747,"SqMiles":2.04312303302,"Acres":1307.59874097,"Shape__Area":8746217.765625,"Shape__Length":15878.873738468496}}]}